{"type":"FeatureCollection","features":[{"type":"Feature","id":0,"geometry":{"type":"LineString","coordinates":[[-118.15802196244667,34.20037173387776],[-118.15299679752711,34.19878686531858],[-118.1514612811608,34.20211734646917],[-118.14811790259029,34.201062915529334]]},"properties":{"FID":0,"Shape_Leng":1476.76093455,"Name":"Dabney","Date":"Est start ~5/26"}},{"type":"Feature","id":1,"geometry":{"type":"LineString","coordinates":[[-118.15175889570936,34.201471840632294],[-118.14912526975664,34.20066282833942]]},"properties":{"FID":1,"Shape_Leng":312.742306001,"Name":"Dabney","Date":"Est start ~5/26"}},{"type":"Feature","id":2,"geometry":{"type":"LineString","coordinates":[[-118.15207449452996,34.200787323822176],[-118.15454149826887,34.20158462281842],[-118.15432481923244,34.20204323464469]]},"properties":{"FID":2,"Shape_Leng":361.120515438,"Name":"Rosebud 10","Date":"Est start ~July"}},{"type":"Feature","id":3,"geometry":{"type":"LineString","coordinates":[[-118.15549960362166,34.201972743950606],[-118.15644638840526,34.19987482273842]]},"properties":{"FID":3,"Shape_Leng":301.397739884,"Name":"Dabney","Date":"Est start ~5/26"}},{"type":"Feature","id":4,"geometry":{"type":"LineString","coordinates":[[-118.15475658279566,34.201245015733406],[-118.15547321201691,34.19956789630617]]},"properties":{"FID":4,"Shape_Leng":239.411981238,"Name":"Dabney","Date":"Est start ~5/26"}},{"type":"Feature","id":5,"geometry":{"type":"LineString","coordinates":[[-118.15504641344226,34.20056673137772],[-118.15284037209005,34.199870401262984]]},"properties":{"FID":5,"Shape_Leng":262.851698476,"Name":"Dabney","Date":"Est start ~5/26"}},{"type":"Feature","id":6,"geometry":{"type":"LineString","coordinates":[[-118.14632916731507,34.20451165783118],[-118.1461843660778,34.20474521906861],[-118.14609210280993,34.2047918495154],[-118.14597032359673,34.2047686312485],[-118.14570767147903,34.20463076132741]]},"properties":{"FID":6,"Shape_Leng":95.9080120699,"Name":"Rosebud 1","Date":"Est start ~June"}},{"type":"Feature","id":7,"geometry":{"type":"LineString","coordinates":[[-118.13253898925137,34.2040012420874],[-118.13253898925137,34.20414034037932],[-118.13280328528606,34.2047166040907],[-118.13281930404422,34.205279617375425],[-118.13279527680531,34.20534585350451],[-118.13268315088816,34.20544520797201],[-118.13181818106739,34.20574327141473],[-118.13141773277499,34.206061204839585],[-118.13131361533861,34.206180429471864]]},"properties":{"FID":7,"Shape_Leng":390.987151014,"Name":"Rosebud 12","Date":"Est start ~July"}},{"type":"Feature","id":8,"geometry":{"type":"LineString","coordinates":[[-118.13280328528606,34.2047166040907],[-118.13231473831543,34.20474972275438],[-118.1315378671729,34.20480271273785]]},"properties":{"FID":8,"Shape_Leng":141.341719572,"Name":"Rosebud 12","Date":"Est start ~July"}},{"type":"Feature","id":9,"geometry":{"type":"LineString","coordinates":[[-118.13148981359338,34.203272625724864],[-118.13078502326924,34.20327924912637]]},"properties":{"FID":9,"Shape_Leng":78.4619648617,"Name":"Rosebud 11","Date":"Est start ~June"}},{"type":"Feature","id":10,"geometry":{"type":"LineString","coordinates":[[-118.13196234270421,34.20261024134329],[-118.13078502326924,34.202517507738584]]},"properties":{"FID":10,"Shape_Leng":131.651621597,"Name":"Rosebud 11","Date":"Est start ~June"}},{"type":"Feature","id":11,"geometry":{"type":"LineString","coordinates":[[-118.13078502326924,34.202517507738584],[-118.1307690054094,34.20224592830922],[-118.13037656559774,34.20223268060045],[-118.12969580251252,34.20199421999982],[-118.12877476973318,34.201735886673646],[-118.12799789859064,34.20148417684131],[-118.12789378205257,34.201411313387204],[-118.12779767399526,34.201252338427125],[-118.12777364765468,34.20109336316731],[-118.12807798878809,34.20058993891433],[-118.12776563827562,34.20049720234428],[-118.12750935072168,34.20033160128499],[-118.12710890242928,34.19996727840383],[-118.126788543436,34.1995698325196],[-118.1265803094616,34.1992121300677],[-118.1265803094616,34.19903327827259],[-118.1265963273214,34.19885442684112],[-118.12669243537873,34.19864245323714]]},"properties":{"FID":11,"Shape_Leng":836.01012968,"Name":"Rosebud 3","Date":"Est completion ~August"}},{"type":"Feature","id":12,"geometry":{"type":"LineString","coordinates":[[-118.12669243537873,34.19864245323714],[-118.1260757437328,34.19831786804121],[-118.1257714025994,34.19812576599495],[-118.1255791873831,34.19786079624534],[-118.12546706146597,34.19754945648705],[-118.12541900788648,34.19723811557914],[-118.12541900788648,34.19693339816462]]},"properties":{"FID":12,"Shape_Leng":292.555320173,"Name":"Rosebud 3","Date":"Est completion ~August"}},{"type":"Feature","id":13,"geometry":{"type":"LineString","coordinates":[[-118.12570638882731,34.1980361443275],[-118.12551511594377,34.198178759399156],[-118.12537095430697,34.19826487398144],[-118.1252668368706,34.19834436468713],[-118.12516272033254,34.19854309000894],[-118.12509063951413,34.19869544631658],[-118.12505059531372,34.19894054073331],[-118.12508263103337,34.19902665453754],[-118.12515471185178,34.19909952005264],[-118.12534692706808,34.199179009971424]]},"properties":{"FID":13,"Shape_Leng":197.413912608,"Name":"Rosebud 3","Date":"Est completion ~August"}},{"type":"Feature","id":14,"geometry":{"type":"LineString","coordinates":[[-118.12617887122573,34.198372147446385],[-118.12637207638545,34.19792703894656]]},"properties":{"FID":14,"Shape_Leng":63.651057721,"Name":"Rosebud 3","Date":"Est completion ~August"}},{"type":"Feature","id":15,"geometry":{"type":"LineString","coordinates":[[-118.12782971061326,34.20100062715109],[-118.12759745029821,34.20092113894981],[-118.12730111764556,34.20075553872324],[-118.1270288122318,34.20043096166243]]},"properties":{"FID":15,"Shape_Leng":120.965869657,"Name":"Rosebud 3","Date":"Est completion ~August"}},{"type":"Feature","id":16,"geometry":{"type":"LineString","coordinates":[[-118.13288337548354,34.20170276756881],[-118.13090515766714,34.20107349096015]]},"properties":{"FID":16,"Shape_Leng":235.940694257,"Name":"Rosebud 11","Date":"Est start ~June"}},{"type":"Feature","id":17,"geometry":{"type":"LineString","coordinates":[[-118.13215455792049,34.201470929012785],[-118.132010397182,34.20184849391024]]},"properties":{"FID":17,"Shape_Leng":53.2923574651,"Name":"Rosebud 11","Date":"Est start ~June"}},{"type":"Feature","id":18,"geometry":{"type":"LineString","coordinates":[[-118.12541900788648,34.19693339816462],[-118.12555666212732,34.196651450637425],[-118.12580694264696,34.19636163516541],[-118.12657029863605,34.19577165175843],[-118.12678303676333,34.195637093613314],[-118.12712091559958,34.195078156795525],[-118.1272085139162,34.19472623163067],[-118.12730862576468,34.1943225508035],[-118.12755890628434,34.19376360601538],[-118.1279718699053,34.19345307887178],[-118.12857254279307,34.19316325240695],[-118.12902304790802,34.193028690099574]]},"properties":{"FID":18,"Shape_Leng":695.971751832,"Name":"Rosebud 2","Date":"Completed 5/15"}},{"type":"Feature","id":19,"geometry":{"type":"LineString","coordinates":[[-118.12902304790802,34.193028690099574],[-118.12949858098516,34.19289412757753],[-118.13043713360747,34.192707809656135],[-118.13113791834377,34.192635352492985]]},"properties":{"FID":19,"Shape_Leng":242.01229402,"Name":"Palm","Date":"Completed 5/15"}},{"type":"Feature","id":20,"geometry":{"type":"LineString","coordinates":[[-118.12712091559958,34.195078156795525],[-118.12589153789557,34.19429025652135]]},"properties":{"FID":20,"Shape_Leng":173.127957175,"Name":"Rosebud 2","Date":"Completed 5/15"}},{"type":"Feature","id":21,"geometry":{"type":"LineString","coordinates":[[-118.12609176159263,34.194078271443],[-118.12589153789557,34.19429025652135],[-118.1251707297116,34.19493283261603]]},"properties":{"FID":21,"Shape_Leng":154.176190819,"Name":"Rosebud 2","Date":"Completed 5/15"}},{"type":"Feature","id":22,"geometry":{"type":"LineString","coordinates":[[-118.12657029863605,34.19577165175843],[-118.1263880942453,34.19558865256906],[-118.12605972587298,34.19533692438395]]},"properties":{"FID":22,"Shape_Leng":81.7454902417,"Name":"Rosebud 2","Date":"Completed 5/15"}},{"type":"Feature","id":23,"geometry":{"type":"LineString","coordinates":[[-118.12580694264696,34.19636163516541],[-118.1254590529852,34.19612522799378],[-118.12520276543128,34.19595299437068],[-118.12511466675303,34.19584700398808],[-118.12480231624052,34.195595276574245]]},"properties":{"FID":23,"Shape_Leng":152.738530693,"Name":"Rosebud 2","Date":"Completed 5/15"}},{"type":"Feature","id":24,"geometry":{"type":"LineString","coordinates":[[-118.15534004935249,34.19230411990972],[-118.15516485271924,34.192749213509124],[-118.15475188999662,34.19329781524267]]},"properties":{"FID":24,"Shape_Leng":149.970241147,"Name":"Oaks","Date":"Est start ~July"}},{"type":"Feature","id":25,"geometry":{"type":"LineString","coordinates":[[-118.15402607639987,34.19402237689468],[-118.15481446035109,34.19213850275866]]},"properties":{"FID":25,"Shape_Leng":268.296029977,"Name":"Oaks","Date":"Est start ~July"}},{"type":"Feature","id":26,"geometry":{"type":"LineString","coordinates":[[-118.15214897205354,34.19219025829264],[-118.14944594226193,34.19134146590253]]},"properties":{"FID":26,"Shape_Leng":321.853040682,"Name":"Oaks","Date":"Est start ~July"}},{"type":"Feature","id":27,"geometry":{"type":"LineString","coordinates":[[-118.14838224982894,34.192242013051775],[-118.14978382109818,34.189395422924015]]},"properties":{"FID":27,"Shape_Leng":413.643600493,"Name":"Oaks","Date":"Est start ~July"}},{"type":"Feature","id":28,"geometry":{"type":"LineString","coordinates":[[-118.15000907365565,34.188867499424944],[-118.14872012866518,34.18843273645886]]},"properties":{"FID":28,"Shape_Leng":154.955091247,"Name":"Oaks","Date":"Est start ~July"}},{"type":"Feature","id":29,"geometry":{"type":"LineString","coordinates":[[-118.14810694134718,34.19214885342217],[-118.14576681745567,34.191382870426324],[-118.14549150897389,34.19135181740691],[-118.14527877084662,34.191331115139924],[-118.14499094793464,34.19141392417737]]},"properties":{"FID":29,"Shape_Leng":368.855777746,"Name":"Oaks","Date":"Est start ~July"}},{"type":"Feature","id":30,"geometry":{"type":"LineString","coordinates":[[-118.14501597589675,34.19110338912465],[-118.14594201408887,34.18925050358679]]},"properties":{"FID":30,"Shape_Leng":269.825142621,"Name":"Oaks","Date":"Est start ~July"}},{"type":"Feature","id":31,"geometry":{"type":"LineString","coordinates":[[-118.14616240226911,34.19151235584342],[-118.14705576244612,34.18959209988373]]},"properties":{"FID":31,"Shape_Leng":276.899364655,"Name":"Oaks","Date":"Est start ~July"}},{"type":"Feature","id":32,"geometry":{"type":"LineString","coordinates":[[-118.14725357326832,34.19186952475523],[-118.14813196930932,34.18996474908175]]},"properties":{"FID":32,"Shape_Leng":274.35900368,"Name":"Oaks","Date":"Est start ~July"}},{"type":"Feature","id":33,"geometry":{"type":"LineString","coordinates":[[-118.1279718699053,34.19345307887178],[-118.1278342156644,34.193235709116536],[-118.12758393514477,34.193152901867954],[-118.12729611223278,34.19310114692478],[-118.12151463142101,34.19310114692478]]},"properties":{"FID":33,"Shape_Leng":739.412018727,"Name":"Bunny","Date":"Est completion ~June"}},{"type":"Feature","id":34,"geometry":{"type":"LineString","coordinates":[[-118.12200267803004,34.19310114692478],[-118.12202770599215,34.1936186934411]]},"properties":{"FID":34,"Shape_Leng":69.7084994905,"Name":"Bunny","Date":"Est completion ~June"}},{"type":"Feature","id":35,"geometry":{"type":"LineString","coordinates":[[-118.12325408062816,34.19310114692478],[-118.12326659505837,34.194829738747494]]},"properties":{"FID":35,"Shape_Leng":232.644371059,"Name":"Bunny","Date":"Est completion ~June"}},{"type":"Feature","id":36,"geometry":{"type":"LineString","coordinates":[[-118.1232637456023,34.19443611381638],[-118.12364201628696,34.19494359754377],[-118.12380469848996,34.195005701669025],[-118.12395486626276,34.19504710439378],[-118.12411754936407,34.194974649240585]]},"properties":{"FID":36,"Shape_Leng":138.371738367,"Name":"Bunny","Date":"Est completion ~June"}},{"type":"Feature","id":37,"geometry":{"type":"LineString","coordinates":[[-118.12902304790802,34.193028690099574],[-118.12868516907179,34.19241798137308],[-118.12864762757776,34.19033739663326]]},"properties":{"FID":37,"Shape_Leng":370.422945371,"Name":"Bunny","Date":"Est completion ~June"}},{"type":"Feature","id":38,"geometry":{"type":"LineString","coordinates":[[-118.12867245970713,34.191713646678686],[-118.12189005175128,34.19177621387466]]},"properties":{"FID":38,"Shape_Leng":755.061152259,"Name":"Bunny","Date":"Est completion ~June"}},{"type":"Feature","id":39,"geometry":{"type":"LineString","coordinates":[[-118.12322874723883,34.19176386435638],[-118.12325408062816,34.19310114692478]]},"properties":{"FID":39,"Shape_Leng":179.995193512,"Name":"Bunny","Date":"Est completion ~June"}},{"type":"Feature","id":40,"geometry":{"type":"LineString","coordinates":[[-118.12957366487154,34.19121725220916],[-118.12957366487154,34.19035809914418]]},"properties":{"FID":40,"Shape_Leng":115.623599999,"Name":"Bunny","Date":"Est completion ~June"}},{"type":"Feature","id":41,"geometry":{"type":"LineString","coordinates":[[-118.12957366487154,34.19035809914418],[-118.12326659505837,34.19036845002618],[-118.12158971530741,34.19035809914418]]},"properties":{"FID":41,"Shape_Leng":888.77577937,"Name":"Bunny","Date":"Est completion ~June"}},{"type":"Feature","id":42,"geometry":{"type":"LineString","coordinates":[[-118.12158971530741,34.19035809914418],[-118.12023819996244,34.19063758365865],[-118.11821092784332,34.190668636941034]]},"properties":{"FID":42,"Shape_Leng":380.793901798,"Name":"Homewood","Date":"Est start ~July"}},{"type":"Feature","id":43,"geometry":{"type":"LineString","coordinates":[[-118.12322874723883,34.19176386435638],[-118.12326659505837,34.19036845002618]]},"properties":{"FID":43,"Shape_Leng":187.840756217,"Name":"Bunny","Date":"Est completion ~June"}},{"type":"Feature","id":44,"geometry":{"type":"LineString","coordinates":[[-118.11878657276895,34.189053825830555],[-118.11346811060407,34.18908488043917],[-118.11222922243617,34.18908488043917]]},"properties":{"FID":44,"Shape_Leng":729.975650054,"Name":"Homewood","Date":"Est start ~July"}},{"type":"Feature","id":45,"geometry":{"type":"LineString","coordinates":[[-118.1146444293158,34.187552851834184],[-118.11324285804658,34.18754249986353]]},"properties":{"FID":45,"Shape_Leng":156.028419271,"Name":"Homewood","Date":"Est start ~July"}},{"type":"Feature","id":46,"geometry":{"type":"LineString","coordinates":[[-118.12541900788648,34.19693339816462],[-118.12516872736683,34.19694126437027],[-118.12495598923958,34.19702406864173],[-118.12476827817612,34.19716897462082],[-118.12466816632758,34.19736563345144],[-118.12453051208671,34.19746913732834],[-118.12429274509901,34.19758299181769]]},"properties":{"FID":46,"Shape_Leng":162.649117277,"Name":"Rosebud 2","Date":"Completed 5/15"}},{"type":"Feature","id":47,"geometry":{"type":"LineString","coordinates":[[-118.12706915557122,34.19310114692478],[-118.12644696533745,34.19365015652424]]},"properties":{"FID":47,"Shape_Leng":101.27452353,"Name":"Bunny","Date":"Est completion ~June"}}]}